IRIDIUM 39              
1 25042U 97069D   25144.44562516  .00000501  00000+0  12607-3 0  9997
2 25042  86.3945 221.3025 0018849  33.1896 327.0486 14.49194296445524
IRIDIUM 38              
1 25043U 97069E   25144.30299042  .00000374  00000+0  11706-3 0  9991
2 25043  86.3969 243.1976 0003201 132.1072 228.0399 14.38098057442526
IRIDIUM 42              
1 25077U 97077A   25144.69786733  .00000334  00000+0  10743-3 0  9993
2 25077  86.3967 249.1735 0002278 114.1553 245.9883 14.36334005437824
IRIDIUM 44              
1 25078U 97077B   25144.50726814  .00000352  00000+0  10487-3 0  9993
2 25078  86.3982 231.2392 0004153 100.0916 260.0752 14.40224017440298
IRIDIUM 45              
1 25104U 97082A   25144.25542519  .00019048  00000+0  68949-3 0  9997
2 25104  86.3598  59.5060 0121705  62.0630 299.2872 15.21440541448407
IRIDIUM 24              
1 25105U 97082B   25144.37205490  .00000463  00000+0  13473-3 0  9998
2 25105  86.3893  90.4019 0012320 146.7411 213.4566 14.42076370439789
IRIDIUM 51              
1 25262U 98018A   25144.29940594  .00035051  00000+0  81074-3 0  9997
2 25262  86.3848  67.6470 0088025 344.6513  15.2071 15.38255643443352
IRIDIUM 57              
1 25273U 98019B   25144.54790630  .00000320  00000+0  10380-3 0  9995
2 25273  86.3966 155.1648 0002321  92.2027 267.9435 14.35878147421606
